IRIDIUM 112             
1 41925U 17003J   25151.49974801  .00000041  00000+0  77285-5 0  9996
2 41925  86.3974 247.7406 0002152  96.6099 263.5342 14.34217925438568
IRIDIUM 111             
1 41926U 17003K   25151.55683160  .00000073  00000+0  18958-4 0  9995
2 41926  86.3976 247.7789 0002429  96.6523 263.4949 14.34218110438620
IRIDIUM 113             
1 42803U 17039A   25151.46702739  .00000048  00000+0  99849-5 0  9994
2 42803  86.3959 121.7463 0002134  91.7990 268.3450 14.34217593416477
IRIDIUM 123             
1 42804U 17039B   25151.50850592  .00000054  00000+0  12393-4 0  9996
2 42804  86.3976 153.1838 0002669  91.5292 268.6209 14.34217909415248
IRIDIUM 120             
1 42805U 17039C   25151.46068570  .00000008  00000+0 -43233-5 0  9997
2 42805  86.3951 121.5809 0002486  81.7877 278.3600 14.34217914416460
IRIDIUM 115             
1 42806U 17039D   25151.38296113  .00000390  00000+0  10986-3 0  9995
2 42806  86.4484 121.6893 0003111  91.1271 269.0286 14.43275033419192
IRIDIUM 118             
1 42807U 17039E   25151.54021910 -.00000013  00000+0 -11605-4 0  9999
2 42807  86.3980 153.1702 0002125  90.3223 269.8217 14.34217484415255
IRIDIUM 117             
1 42808U 17039F   25151.55924466  .00000147  00000+0  45337-4 0  9994
2 42808  86.3974 153.1237 0002551  94.3003 265.8484 14.34219175415289
